[{"OBJECT_NAME":"ONEWEB-0497","OBJECT_ID":"2022-138D","EPOCH":"2025-10-19T21:17:13.239456","MEAN_MOTION":13.19723849,"ECCENTRICITY":0.00019062,"INCLINATION":87.9267,"RA_OF_ASC_NODE":352.7659,"ARG_OF_PERICENTER":102.1057,"MEAN_ANOMALY":258.0289,"EPHEMERIS_TYPE":0,"CLASSIFICATION_TYPE":"U","NORAD_CAT_ID":54116,"ELEMENT_SET_NO":999,"REV_AT_EPOCH":14511,"BSTAR":0.00020011117,"MEAN_MOTION_DOT":9.3e-7,"MEAN_MOTION_DDOT":0},{"OBJECT_NAME":"ONEWEB-0499","OBJECT_ID":"2022-138E","EPOCH":"2025-10-19T09:58:16.783392","MEAN_MOTION":13.19724072,"ECCENTRICITY":0.00016845,"INCLINATION":87.9261,"RA_OF_ASC_NODE":352.8744,"ARG_OF_PERICENTER":103.1286,"MEAN_ANOMALY":257.0035,"EPHEMERIS_TYPE":0,"CLASSIFICATION_TYPE":"U","NORAD_CAT_ID":54117,"ELEMENT_SET_NO":999,"REV_AT_EPOCH":14506,"BSTAR":0.00036361656,"MEAN_MOTION_DOT":1.59e-6,"MEAN_MOTION_DDOT":0},{"OBJECT_NAME":"ONEWEB-0500","OBJECT_ID":"2022-138F","EPOCH":"2025-10-19T20:56:45.258720","MEAN_MOTION":13.19724386,"ECCENTRICITY":0.00019542,"INCLINATION":87.9259,"RA_OF_ASC_NODE":352.771,"ARG_OF_PERICENTER":98.4942,"MEAN_ANOMALY":261.6413,"EPHEMERIS_TYPE":0,"CLASSIFICATION_TYPE":"U","NORAD_CAT_ID":54118,"ELEMENT_SET_NO":999,"REV_AT_EPOCH":14513,"BSTAR":0.0001991781,"MEAN_MOTION_DOT":9.3e-7,"MEAN_MOTION_DDOT":0},{"OBJECT_NAME":"ONEWEB-0501","OBJECT_ID":"2022-138G","EPOCH":"2025-10-19T21:39:58.897728","MEAN_MOTION":13.1972456,"ECCENTRICITY":0.0001846,"INCLINATION":87.9267,"RA_OF_ASC_NODE":352.7588,"ARG_OF_PERICENTER":112.3975,"MEAN_ANOMALY":247.7354,"EPHEMERIS_TYPE":0,"CLASSIFICATION_TYPE":"U","NORAD_CAT_ID":54119,"ELEMENT_SET_NO":999,"REV_AT_EPOCH":14511,"BSTAR":0.00024976754,"MEAN_MOTION_DOT":1.13e-6,"MEAN_MOTION_DDOT":0},{"OBJECT_NAME":"ONEWEB-0502","OBJECT_ID":"2022-138H","EPOCH":"2025-10-19T10:24:26.624736","MEAN_MOTION":13.19724888,"ECCENTRICITY":0.0001701,"INCLINATION":87.927,"RA_OF_ASC_NODE":352.8345,"ARG_OF_PERICENTER":106.3756,"MEAN_ANOMALY":253.7564,"EPHEMERIS_TYPE":0,"CLASSIFICATION_TYPE":"U","NORAD_CAT_ID":54120,"ELEMENT_SET_NO":999,"REV_AT_EPOCH":14507,"BSTAR":0.0001373869,"MEAN_MOTION_DOT":6.8e-7,"MEAN_MOTION_DDOT":0},{"OBJECT_NAME":"ONEWEB-0503","OBJECT_ID":"2022-138J","EPOCH":"2025-10-19T21:03:34.295328","MEAN_MOTION":13.19724119,"ECCENTRICITY":0.00016114,"INCLINATION":87.9267,"RA_OF_ASC_NODE":352.7505,"ARG_OF_PERICENTER":95.1318,"MEAN_ANOMALY":264.9999,"EPHEMERIS_TYPE":0,"CLASSIFICATION_TYPE":"U","NORAD_CAT_ID":54121,"ELEMENT_SET_NO":999,"REV_AT_EPOCH":14512,"BSTAR":0.0002200377,"MEAN_MOTION_DOT":1.01e-6,"MEAN_MOTION_DDOT":0},{"OBJECT_NAME":"ONEWEB-0504","OBJECT_ID":"2022-138K","EPOCH":"2025-10-19T20:45:22.735008","MEAN_MOTION":13.19724395,"ECCENTRICITY":0.000167,"INCLINATION":87.9269,"RA_OF_ASC_NODE":352.7706,"ARG_OF_PERICENTER":106.4338,"MEAN_ANOMALY":253.6979,"EPHEMERIS_TYPE":0,"CLASSIFICATION_TYPE":"U","NORAD_CAT_ID":54122,"ELEMENT_SET_NO":999,"REV_AT_EPOCH":14513,"BSTAR":8.7136169e-5,"MEAN_MOTION_DOT":4.8e-7,"MEAN_MOTION_DDOT":0},{"OBJECT_NAME":"ONEWEB-0505","OBJECT_ID":"2022-138L","EPOCH":"2025-10-19T20:40:49.897632","MEAN_MOTION":13.19724103,"ECCENTRICITY":0.00017145,"INCLINATION":87.9268,"RA_OF_ASC_NODE":352.7593,"ARG_OF_PERICENTER":116.8546,"MEAN_ANOMALY":243.2763,"EPHEMERIS_TYPE":0,"CLASSIFICATION_TYPE":"U","NORAD_CAT_ID":54123,"ELEMENT_SET_NO":999,"REV_AT_EPOCH":14511,"BSTAR":0.00012139619,"MEAN_MOTION_DOT":6.2e-7,"MEAN_MOTION_DDOT":0},{"OBJECT_NAME":"ONEWEB-0506","OBJECT_ID":"2022-138M","EPOCH":"2025-10-19T14:36:54.664992","MEAN_MOTION":13.19724488,"ECCENTRICITY":0.00017941,"INCLINATION":87.9269,"RA_OF_ASC_NODE":352.8065,"ARG_OF_PERICENTER":104.17,"MEAN_ANOMALY":255.9633,"EPHEMERIS_TYPE":0,"CLASSIFICATION_TYPE":"U","NORAD_CAT_ID":54124,"ELEMENT_SET_NO":999,"REV_AT_EPOCH":14507,"BSTAR":0.00016801961,"MEAN_MOTION_DOT":8.0e-7,"MEAN_MOTION_DDOT":0},{"OBJECT_NAME":"ONEWEB-0507","OBJECT_ID":"2022-138N","EPOCH":"2025-10-19T11:28:07.320000","MEAN_MOTION":13.19724871,"ECCENTRICITY":0.00018766,"INCLINATION":87.9251,"RA_OF_ASC_NODE":352.8772,"ARG_OF_PERICENTER":106.1625,"MEAN_ANOMALY":253.9714,"EPHEMERIS_TYPE":0,"CLASSIFICATION_TYPE":"U","NORAD_CAT_ID":54125,"ELEMENT_SET_NO":999,"REV_AT_EPOCH":14510,"BSTAR":5.787623e-5,"MEAN_MOTION_DOT":3.6e-7,"MEAN_MOTION_DDOT":0},{"OBJECT_NAME":"ONEWEB-0508","OBJECT_ID":"2022-138P","EPOCH":"2025-10-19T15:01:55.909920","MEAN_MOTION":13.1972466,"ECCENTRICITY":0.0001912,"INCLINATION":87.9262,"RA_OF_ASC_NODE":352.836,"ARG_OF_PERICENTER":111.2368,"MEAN_ANOMALY":248.8969,"EPHEMERIS_TYPE":0,"CLASSIFICATION_TYPE":"U","NORAD_CAT_ID":54126,"ELEMENT_SET_NO":999,"REV_AT_EPOCH":14510,"BSTAR":-3.2448657e-5,"MEAN_MOTION_DOT":0,"MEAN_MOTION_DDOT":0},{"OBJECT_NAME":"ONEWEB-0509","OBJECT_ID":"2022-138Q","EPOCH":"2025-10-19T21:42:14.112864","MEAN_MOTION":13.19723556,"ECCENTRICITY":0.00018551,"INCLINATION":87.9269,"RA_OF_ASC_NODE":352.7464,"ARG_OF_PERICENTER":103.0771,"MEAN_ANOMALY":257.0569,"EPHEMERIS_TYPE":0,"CLASSIFICATION_TYPE":"U","NORAD_CAT_ID":54127,"ELEMENT_SET_NO":999,"REV_AT_EPOCH":14511,"BSTAR":-9.9950957e-5,"MEAN_MOTION_DOT":-2.7e-7,"MEAN_MOTION_DDOT":0},{"OBJECT_NAME":"ONEWEB-0510","OBJECT_ID":"2022-138R","EPOCH":"2025-10-19T19:56:34.267488","MEAN_MOTION":13.20770097,"ECCENTRICITY":0.00020704,"INCLINATION":87.9207,"RA_OF_ASC_NODE":322.3732,"ARG_OF_PERICENTER":80.1319,"MEAN_ANOMALY":280.0048,"EPHEMERIS_TYPE":0,"CLASSIFICATION_TYPE":"U","NORAD_CAT_ID":54128,"ELEMENT_SET_NO":999,"REV_AT_EPOCH":14755,"BSTAR":4.595589e-5,"MEAN_MOTION_DOT":3.2e-7,"MEAN_MOTION_DDOT":0},{"OBJECT_NAME":"ONEWEB-0511","OBJECT_ID":"2022-138S","EPOCH":"2025-10-19T21:37:41.821536","MEAN_MOTION":13.19724168,"ECCENTRICITY":0.0001595,"INCLINATION":87.9268,"RA_OF_ASC_NODE":352.7513,"ARG_OF_PERICENTER":96.9743,"MEAN_ANOMALY":263.1571,"EPHEMERIS_TYPE":0,"CLASSIFICATION_TYPE":"U","NORAD_CAT_ID":54129,"ELEMENT_SET_NO":999,"REV_AT_EPOCH":14514,"BSTAR":5.2512696e-5,"MEAN_MOTION_DOT":3.4e-7,"MEAN_MOTION_DDOT":0},{"OBJECT_NAME":"ONEWEB-0512","OBJECT_ID":"2022-138T","EPOCH":"2025-10-19T21:26:19.176000","MEAN_MOTION":13.19724554,"ECCENTRICITY":0.00017007,"INCLINATION":87.9249,"RA_OF_ASC_NODE":352.7862,"ARG_OF_PERICENTER":110.9832,"MEAN_ANOMALY":249.1483,"EPHEMERIS_TYPE":0,"CLASSIFICATION_TYPE":"U","NORAD_CAT_ID":54130,"ELEMENT_SET_NO":999,"REV_AT_EPOCH":14511,"BSTAR":0.00022718452,"MEAN_MOTION_DOT":1.04e-6,"MEAN_MOTION_DDOT":0},{"OBJECT_NAME":"ONEWEB-0513","OBJECT_ID":"2022-138U","EPOCH":"2025-10-19T14:52:31.453536","MEAN_MOTION":13.20317868,"ECCENTRICITY":0.00013319,"INCLINATION":87.9273,"RA_OF_ASC_NODE":352.8011,"ARG_OF_PERICENTER":110.8874,"MEAN_ANOMALY":249.2402,"EPHEMERIS_TYPE":0,"CLASSIFICATION_TYPE":"U","NORAD_CAT_ID":54131,"ELEMENT_SET_NO":999,"REV_AT_EPOCH":14497,"BSTAR":1.1516064e-5,"MEAN_MOTION_DOT":1.8e-7,"MEAN_MOTION_DDOT":0},{"OBJECT_NAME":"ONEWEB-0514","OBJECT_ID":"2022-138V","EPOCH":"2025-10-19T21:49:03.709344","MEAN_MOTION":13.19723399,"ECCENTRICITY":0.00018779,"INCLINATION":87.926,"RA_OF_ASC_NODE":352.7627,"ARG_OF_PERICENTER":95.3927,"MEAN_ANOMALY":264.742,"EPHEMERIS_TYPE":0,"CLASSIFICATION_TYPE":"U","NORAD_CAT_ID":54132,"ELEMENT_SET_NO":999,"REV_AT_EPOCH":14513,"BSTAR":7.3014625e-5,"MEAN_MOTION_DOT":4.2e-7,"MEAN_MOTION_DDOT":0}]
