ONEWEB-0497             
1 54116U 22138D   25292.88695879  .00000093  00000+0  20011-3 0  9991
2 54116  87.9267 352.7659 0001906 102.1057 258.0289 13.19723849145110
ONEWEB-0499             
1 54117U 22138E   25292.41547203  .00000159  00000+0  36362-3 0  9997
2 54117  87.9261 352.8744 0001684 103.1286 257.0035 13.19724072145060
ONEWEB-0500             
1 54118U 22138F   25292.87274605  .00000093  00000+0  19918-3 0  9996
2 54118  87.9259 352.7710 0001954  98.4942 261.6413 13.19724386145132
ONEWEB-0501             
1 54119U 22138G   25292.90276502  .00000113  00000+0  24977-3 0  9993
2 54119  87.9267 352.7588 0001846 112.3975 247.7354 13.19724560145118
ONEWEB-0502             
1 54120U 22138H   25292.43364149  .00000068  00000+0  13739-3 0  9991
2 54120  87.9270 352.8345 0001701 106.3756 253.7564 13.19724888145074
ONEWEB-0503             
1 54121U 22138J   25292.87748027  .00000101  00000+0  22004-3 0  9994
2 54121  87.9267 352.7505 0001611  95.1318 264.9999 13.19724119145126
ONEWEB-0504             
1 54122U 22138K   25292.86484647  .00000048  00000+0  87136-4 0  9997
2 54122  87.9269 352.7706 0001670 106.4338 253.6979 13.19724395145135
ONEWEB-0505             
1 54123U 22138L   25292.86168863  .00000062  00000+0  12140-3 0  9995
2 54123  87.9268 352.7593 0001714 116.8546 243.2763 13.19724103145115
ONEWEB-0506             
1 54124U 22138M   25292.60896603  .00000080  00000+0  16802-3 0  9997
2 54124  87.9269 352.8065 0001794 104.1700 255.9633 13.19724488145079
ONEWEB-0507             
1 54125U 22138N   25292.47786250  .00000036  00000+0  57876-4 0  9997
2 54125  87.9251 352.8772 0001876 106.1625 253.9714 13.19724871145103
ONEWEB-0508             
1 54126U 22138P   25292.62634155  .00000000  00000+0 -32449-4 0  9992
2 54126  87.9262 352.8360 0001912 111.2368 248.8969 13.19724660145102
ONEWEB-0509             
1 54127U 22138Q   25292.90433001 -.00000027  00000+0 -99951-4 0  9992
2 54127  87.9269 352.7464 0001855 103.0771 257.0569 13.19723556145119
ONEWEB-0510             
1 54128U 22138R   25292.83095217  .00000032  00000+0  45956-4 0  9998
2 54128  87.9207 322.3732 0002070  80.1319 280.0048 13.20770097147558
ONEWEB-0511             
1 54129U 22138S   25292.90117849  .00000034  00000+0  52513-4 0  9992
2 54129  87.9268 352.7513 0001595  96.9743 263.1571 13.19724168145149
ONEWEB-0512             
1 54130U 22138T   25292.89327750  .00000104  00000+0  22718-3 0  9997
2 54130  87.9249 352.7862 0001700 110.9832 249.1483 13.19724554145113
ONEWEB-0513             
1 54131U 22138U   25292.61980849  .00000018  00000+0  11516-4 0  9991
2 54131  87.9273 352.8011 0001331 110.8874 249.2402 13.20317868144976
ONEWEB-0514             
1 54132U 22138V   25292.90907071  .00000042  00000+0  73015-4 0  9999
2 54132  87.9260 352.7627 0001877  95.3927 264.7420 13.19723399145135
